{
  "type": "FeatureCollection",
  "features": [
    {
      "type": "Feature",
      "properties": {
        "norad_id": 37562,
        "name": "IRIDIUM 33 DEB",
        "group": "iridium-33-debris",
        "lat": -64.80075756051308,
        "lon": 36.62193320665402,
        "alt_km": 730.919630008566,
        "timestamp": "2025-12-10T23:33:13.203716+00:00",
        "meta_object_name": "IRIDIUM 33 DEB",
        "meta_object_id": "1997-051XX",
        "meta_epoch": "2025-12-10T10:43:42.898656",
        "meta_mean_motion": 14.56439028,
        "meta_eccentricity": 0.00267432,
        "meta_inclination": 86.3738,
        "meta_ra_of_asc_node": 44.6002,
        "meta_arg_of_pericenter": 115.0841,
        "meta_mean_anomaly": 259.891,
        "meta_ephemeris_type": 0,
        "meta_classification_type": "U",
        "meta_norad_cat_id": 37562,
        "meta_element_set_no": 999,
        "meta_rev_at_epoch": 86295,
        "meta_bstar": 0.0016081413,
        "meta_mean_motion_dot": 7.198e-05,
        "meta_mean_motion_ddot": 0,
        "tle_line1": "1 37562U 97051XX  25344.44702429  .00007198  00000+0  16081-2 0  9997",
        "tle_line2": "2 37562  86.3738  44.6002 0026743 115.0841 259.8910 14.56439028862954"
      },
      "geometry": {
        "type": "Point",
        "coordinates": [
          36.62193320665402,
          -64.80075756051308
        ]
      }
    },
    {
      "type": "Feature",
      "properties": {
        "norad_id": 37565,
        "name": "IRIDIUM 33 DEB",
        "group": "iridium-33-debris",
        "lat": 72.49215831598735,
        "lon": 178.66752565614607,
        "alt_km": 703.5491756605916,
        "timestamp": "2025-12-10T23:33:13.203725+00:00",
        "meta_object_name": "IRIDIUM 33 DEB",
        "meta_object_id": "1997-051YA",
        "meta_epoch": "2025-12-09T09:00:32.620320",
        "meta_mean_motion": 14.51496664,
        "meta_eccentricity": 0.00152947,
        "meta_inclination": 86.3494,
        "meta_ra_of_asc_node": 11.0435,
        "meta_arg_of_pericenter": 94.02,
        "meta_mean_anomaly": 266.2754,
        "meta_ephemeris_type": 0,
        "meta_classification_type": "U",
        "meta_norad_cat_id": 37565,
        "meta_element_set_no": 999,
        "meta_rev_at_epoch": 65788,
        "meta_bstar": 0.00087733557,
        "meta_mean_motion_dot": 3.53e-05,
        "meta_mean_motion_ddot": 0,
        "tle_line1": "1 37565U 97051YA  25343.37537755  .00003530  00000+0  87734-3 0  9999",
        "tle_line2": "2 37565  86.3494  11.0435 0015294  94.0200 266.2754 14.51496664657884"
      },
      "geometry": {
        "type": "Point",
        "coordinates": [
          178.66752565614607,
          72.49215831598735
        ]
      }
    },
    {
      "type": "Feature",
      "properties": {
        "norad_id": 38017,
        "name": "IRIDIUM 33 DEB",
        "group": "iridium-33-debris",
        "lat": -32.56825354459565,
        "lon": -10.6682835866493,
        "alt_km": 750.370999116948,
        "timestamp": "2025-12-10T23:33:13.203735+00:00",
        "meta_object_name": "IRIDIUM 33 DEB",
        "meta_object_id": "1997-051YD",
        "meta_epoch": "2025-12-09T11:46:33.974400",
        "meta_mean_motion": 14.48798155,
        "meta_eccentricity": 0.00922627,
        "meta_inclination": 86.3416,
        "meta_ra_of_asc_node": 167.6374,
        "meta_arg_of_pericenter": 113.885,
        "meta_mean_anomaly": 247.2055,
        "meta_ephemeris_type": 0,
        "meta_classification_type": "U",
        "meta_norad_cat_id": 38017,
        "meta_element_set_no": 999,
        "meta_rev_at_epoch": 61355,
        "meta_bstar": 0.007075922,
        "meta_mean_motion_dot": 0.00028304,
        "meta_mean_motion_ddot": 0,
        "tle_line1": "1 38017U 97051YD  25343.49067100  .00028304  00000+0  70759-2 0  9991",
        "tle_line2": "2 38017  86.3416 167.6374 0092262 113.8850 247.2055 14.48798155613557"
      },
      "geometry": {
        "type": "Point",
        "coordinates": [
          -10.6682835866493,
          -32.56825354459565
        ]
      }
    },
    {
      "type": "Feature",
      "properties": {
        "norad_id": 38022,
        "name": "IRIDIUM 33 DEB",
        "group": "iridium-33-debris",
        "lat": 41.82247359469252,
        "lon": 20.56125515370162,
        "alt_km": 718.5414649410104,
        "timestamp": "2025-12-10T23:33:13.203744+00:00",
        "meta_object_name": "IRIDIUM 33 DEB",
        "meta_object_id": "1997-051YJ",
        "meta_epoch": "2025-12-07T08:42:47.311776",
        "meta_mean_motion": 14.41201446,
        "meta_eccentricity": 0.00469795,
        "meta_inclination": 86.2687,
        "meta_ra_of_asc_node": 18.7976,
        "meta_arg_of_pericenter": 67.6005,
        "meta_mean_anomaly": 293.0162,
        "meta_ephemeris_type": 0,
        "meta_classification_type": "U",
        "meta_norad_cat_id": 38022,
        "meta_element_set_no": 999,
        "meta_rev_at_epoch": 69116,
        "meta_bstar": 0.0015997038,
        "meta_mean_motion_dot": 5.249e-05,
        "meta_mean_motion_ddot": 0,
        "tle_line1": "1 38022U 97051YJ  25341.36304759  .00005249  00000+0  15997-2 0  9991",
        "tle_line2": "2 38022  86.2687  18.7976 0046979  67.6005 293.0162 14.41201446691164"
      },
      "geometry": {
        "type": "Point",
        "coordinates": [
          20.56125515370162,
          41.82247359469252
        ]
      }
    },
    {
      "type": "Feature",
      "properties": {
        "norad_id": 38028,
        "name": "IRIDIUM 33 DEB",
        "group": "iridium-33-debris",
        "lat": 25.152140020144394,
        "lon": 179.30463949025074,
        "alt_km": 718.5934790946549,
        "timestamp": "2025-12-10T23:33:13.203755+00:00",
        "meta_object_name": "IRIDIUM 33 DEB",
        "meta_object_id": "1997-051YQ",
        "meta_epoch": "2025-12-09T08:38:54.868992",
        "meta_mean_motion": 14.46171938,
        "meta_eccentricity": 0.00301795,
        "meta_inclination": 86.3256,
        "meta_ra_of_asc_node": 1.7381,
        "meta_arg_of_pericenter": 131.6061,
        "meta_mean_anomaly": 228.7734,
        "meta_ephemeris_type": 0,
        "meta_classification_type": "U",
        "meta_norad_cat_id": 38028,
        "meta_element_set_no": 999,
        "meta_rev_at_epoch": 65446,
        "meta_bstar": 0.0004464513,
        "meta_mean_motion_dot": 1.624e-05,
        "meta_mean_motion_ddot": 0,
        "tle_line1": "1 38028U 97051YQ  25343.36035728  .00001624  00000+0  44645-3 0  9992",
        "tle_line2": "2 38028  86.3256   1.7381 0030179 131.6061 228.7734 14.46171938654463"
      },
      "geometry": {
        "type": "Point",
        "coordinates": [
          179.30463949025074,
          25.152140020144394
        ]
      }
    },
    {
      "type": "Feature",
      "properties": {
        "norad_id": 38228,
        "name": "IRIDIUM 33 DEB",
        "group": "iridium-33-debris",
        "lat": -28.292976494272153,
        "lon": -128.783326175409,
        "alt_km": 762.1616054919505,
        "timestamp": "2025-12-10T23:33:13.203766+00:00",
        "meta_object_name": "IRIDIUM 33 DEB",
        "meta_object_id": "1997-051ZC",
        "meta_epoch": "2025-12-08T11:59:08.255904",
        "meta_mean_motion": 14.27257685,
        "meta_eccentricity": 0.00637921,
        "meta_inclination": 86.2952,
        "meta_ra_of_asc_node": 50.2726,
        "meta_arg_of_pericenter": 203.1298,
        "meta_mean_anomaly": 220.077,
        "meta_ephemeris_type": 0,
        "meta_classification_type": "U",
        "meta_norad_cat_id": 38228,
        "meta_element_set_no": 999,
        "meta_rev_at_epoch": 84721,
        "meta_bstar": 0.00059886698,
        "meta_mean_motion_dot": 1.514e-05,
        "meta_mean_motion_ddot": 0,
        "tle_line1": "1 38228U 97051ZC  25342.49940111  .00001514  00000+0  59887-3 0  9990",
        "tle_line2": "2 38228  86.2952  50.2726 0063792 203.1298 220.0770 14.27257685847218"
      },
      "geometry": {
        "type": "Point",
        "coordinates": [
          -128.783326175409,
          -28.292976494272153
        ]
      }
    },
    {
      "type": "Feature",
      "properties": {
        "norad_id": 38241,
        "name": "IRIDIUM 33 DEB",
        "group": "iridium-33-debris",
        "lat": -44.76249630174458,
        "lon": -12.281211202447949,
        "alt_km": 718.7092106158852,
        "timestamp": "2025-12-10T23:33:13.203775+00:00",
        "meta_object_name": "IRIDIUM 33 DEB",
        "meta_object_id": "1997-051ZR",
        "meta_epoch": "2025-12-10T07:15:08.601696",
        "meta_mean_motion": 14.54840985,
        "meta_eccentricity": 0.0005635,
        "meta_inclination": 86.3233,
        "meta_ra_of_asc_node": 351.6745,
        "meta_arg_of_pericenter": 78.1993,
        "meta_mean_anomaly": 281.9846,
        "meta_ephemeris_type": 0,
        "meta_classification_type": "U",
        "meta_norad_cat_id": 38241,
        "meta_element_set_no": 999,
        "meta_rev_at_epoch": 60165,
        "meta_bstar": 0.0011122,
        "meta_mean_motion_dot": 4.793e-05,
        "meta_mean_motion_ddot": 0,
        "tle_line1": "1 38241U 97051ZR  25344.30218289  .00004793  00000+0  11122-2 0  9992",
        "tle_line2": "2 38241  86.3233 351.6745 0005635  78.1993 281.9846 14.54840985601656"
      },
      "geometry": {
        "type": "Point",
        "coordinates": [
          -12.281211202447949,
          -44.76249630174458
        ]
      }
    }
  ]
}